[{"OBJECT_NAME":"ATLAS CENTAUR 2","OBJECT_ID":"1963-047A","EPOCH":"2026-03-14T22:04:59.712384","MEAN_MOTION":14.12088524,"ECCENTRICITY":0.05475993,"INCLINATION":30.3518,"RA_OF_ASC_NODE":166.4114,"ARG_OF_PERICENTER":126.3734,"MEAN_ANOMALY":238.8666,"EPHEMERIS_TYPE":0,"CLASSIFICATION_TYPE":"U","NORAD_CAT_ID":694,"ELEMENT_SET_NO":999,"REV_AT_EPOCH":13236,"BSTAR":0.00026942764,"MEAN_MOTION_DOT":2.292e-5,"MEAN_MOTION_DDOT":0},{"OBJECT_NAME":"THOR AGENA D R/B","OBJECT_ID":"1964-002A","EPOCH":"2026-03-15T07:31:13.404576","MEAN_MOTION":14.34023694,"ECCENTRICITY":0.00320439,"INCLINATION":99.1222,"RA_OF_ASC_NODE":87.9573,"ARG_OF_PERICENTER":241.2737,"MEAN_ANOMALY":118.5224,"EPHEMERIS_TYPE":0,"CLASSIFICATION_TYPE":"U","NORAD_CAT_ID":733,"ELEMENT_SET_NO":999,"REV_AT_EPOCH":23910,"BSTAR":9.8649884e-5,"MEAN_MOTION_DOT":2.28e-6,"MEAN_MOTION_DDOT":0},{"OBJECT_NAME":"SL-3 R/B","OBJECT_ID":"1964-053B","EPOCH":"2026-03-15T00:42:51.032448","MEAN_MOTION":14.61372843,"ECCENTRICITY":0.00799213,"INCLINATION":65.0777,"RA_OF_ASC_NODE":315.582,"ARG_OF_PERICENTER":290.5405,"MEAN_ANOMALY":68.7132,"EPHEMERIS_TYPE":0,"CLASSIFICATION_TYPE":"U","NORAD_CAT_ID":877,"ELEMENT_SET_NO":999,"REV_AT_EPOCH":26757,"BSTAR":7.0704854e-5,"MEAN_MOTION_DOT":2.4e-6,"MEAN_MOTION_DDOT":0},{"OBJECT_NAME":"SL-8 R/B","OBJECT_ID":"1967-045B","EPOCH":"2026-03-15T04:19:44.814720","MEAN_MOTION":14.45628006,"ECCENTRICITY":0.00644309,"INCLINATION":74.0137,"RA_OF_ASC_NODE":337.8364,"ARG_OF_PERICENTER":342.845,"MEAN_ANOMALY":17.0529,"EPHEMERIS_TYPE":0,"CLASSIFICATION_TYPE":"U","NORAD_CAT_ID":2802,"ELEMENT_SET_NO":999,"REV_AT_EPOCH":8981,"BSTAR":0.00010531846,"MEAN_MOTION_DOT":3.53e-6,"MEAN_MOTION_DDOT":0},{"OBJECT_NAME":"SL-8 R/B","OBJECT_ID":"1968-040B","EPOCH":"2026-03-15T00:48:28.939392","MEAN_MOTION":15.03296067,"ECCENTRICITY":0.00236683,"INCLINATION":74.0312,"RA_OF_ASC_NODE":302.7747,"ARG_OF_PERICENTER":124.5241,"MEAN_ANOMALY":235.8187,"EPHEMERIS_TYPE":0,"CLASSIFICATION_TYPE":"U","NORAD_CAT_ID":3230,"ELEMENT_SET_NO":999,"REV_AT_EPOCH":9081,"BSTAR":0.00029197293,"MEAN_MOTION_DOT":3.943e-5,"MEAN_MOTION_DDOT":0},{"OBJECT_NAME":"OAO 2","OBJECT_ID":"1968-110A","EPOCH":"2026-03-15T03:56:17.488320","MEAN_MOTION":14.47311244,"ECCENTRICITY":0.00061732,"INCLINATION":34.9925,"RA_OF_ASC_NODE":234.6576,"ARG_OF_PERICENTER":245.6022,"MEAN_ANOMALY":114.4024,"EPHEMERIS_TYPE":0,"CLASSIFICATION_TYPE":"U","NORAD_CAT_ID":3597,"ELEMENT_SET_NO":999,"REV_AT_EPOCH":1989,"BSTAR":7.2303139e-5,"MEAN_MOTION_DOT":2.49e-6,"MEAN_MOTION_DDOT":0},{"OBJECT_NAME":"ISIS 1","OBJECT_ID":"1969-009A","EPOCH":"2026-03-15T04:58:15.246624","MEAN_MOTION":11.30415999,"ECCENTRICITY":0.17078656,"INCLINATION":88.4533,"RA_OF_ASC_NODE":154.707,"ARG_OF_PERICENTER":78.0326,"MEAN_ANOMALY":300.6281,"EPHEMERIS_TYPE":0,"CLASSIFICATION_TYPE":"U","NORAD_CAT_ID":3669,"ELEMENT_SET_NO":999,"REV_AT_EPOCH":34915,"BSTAR":8.3041865e-5,"MEAN_MOTION_DOT":1.4e-6,"MEAN_MOTION_DDOT":0},{"OBJECT_NAME":"SERT 2","OBJECT_ID":"1970-009A","EPOCH":"2026-03-15T03:18:05.520960","MEAN_MOTION":13.58730358,"ECCENTRICITY":0.00052557,"INCLINATION":99.2764,"RA_OF_ASC_NODE":16.9332,"ARG_OF_PERICENTER":142.4702,"MEAN_ANOMALY":229.4949,"EPHEMERIS_TYPE":0,"CLASSIFICATION_TYPE":"U","NORAD_CAT_ID":4327,"ELEMENT_SET_NO":999,"REV_AT_EPOCH":78063,"BSTAR":5.1749942e-5,"MEAN_MOTION_DOT":-3.0e-8,"MEAN_MOTION_DDOT":0},{"OBJECT_NAME":"SL-3 R/B","OBJECT_ID":"1971-028B","EPOCH":"2026-03-15T05:33:49.454496","MEAN_MOTION":15.61654845,"ECCENTRICITY":0.00132682,"INCLINATION":81.2359,"RA_OF_ASC_NODE":45.1812,"ARG_OF_PERICENTER":260.6962,"MEAN_ANOMALY":99.2791,"EPHEMERIS_TYPE":0,"CLASSIFICATION_TYPE":"U","NORAD_CAT_ID":5118,"ELEMENT_SET_NO":999,"REV_AT_EPOCH":98953,"BSTAR":0.00054126069,"MEAN_MOTION_DOT":0.00046982,"MEAN_MOTION_DDOT":0},{"OBJECT_NAME":"ASTEX 1","OBJECT_ID":"1971-089A","EPOCH":"2026-03-15T06:30:30.847968","MEAN_MOTION":14.50776173,"ECCENTRICITY":0.00176801,"INCLINATION":92.7113,"RA_OF_ASC_NODE":153.5643,"ARG_OF_PERICENTER":69.4301,"MEAN_ANOMALY":290.88,"EPHEMERIS_TYPE":0,"CLASSIFICATION_TYPE":"U","NORAD_CAT_ID":5560,"ELEMENT_SET_NO":999,"REV_AT_EPOCH":86311,"BSTAR":0.00013350499,"MEAN_MOTION_DOT":5.25e-6,"MEAN_MOTION_DDOT":0},{"OBJECT_NAME":"SL-8 R/B","OBJECT_ID":"1971-119B","EPOCH":"2026-03-15T05:21:40.975488","MEAN_MOTION":14.38004507,"ECCENTRICITY":0.05480056,"INCLINATION":73.8878,"RA_OF_ASC_NODE":165.3752,"ARG_OF_PERICENTER":130.8548,"MEAN_ANOMALY":234.1467,"EPHEMERIS_TYPE":0,"CLASSIFICATION_TYPE":"U","NORAD_CAT_ID":5730,"ELEMENT_SET_NO":999,"REV_AT_EPOCH":65628,"BSTAR":0.00063875436,"MEAN_MOTION_DOT":0.00012266,"MEAN_MOTION_DDOT":0},{"OBJECT_NAME":"OAO 3 (COPERNICUS)","OBJECT_ID":"1972-065A","EPOCH":"2026-03-14T20:33:42.209856","MEAN_MOTION":14.6000283,"ECCENTRICITY":0.00069343,"INCLINATION":35.0051,"RA_OF_ASC_NODE":267.877,"ARG_OF_PERICENTER":208.8547,"MEAN_ANOMALY":168.5338,"EPHEMERIS_TYPE":0,"CLASSIFICATION_TYPE":"U","NORAD_CAT_ID":6153,"ELEMENT_SET_NO":999,"REV_AT_EPOCH":84695,"BSTAR":8.7023236e-5,"MEAN_MOTION_DOT":4.03e-6,"MEAN_MOTION_DDOT":0},{"OBJECT_NAME":"ATLAS CENTAUR R/B","OBJECT_ID":"1972-065B","EPOCH":"2026-03-14T21:30:24.823296","MEAN_MOTION":14.77703537,"ECCENTRICITY":0.00330309,"INCLINATION":35.0009,"RA_OF_ASC_NODE":275.242,"ARG_OF_PERICENTER":53.08,"MEAN_ANOMALY":307.2919,"EPHEMERIS_TYPE":0,"CLASSIFICATION_TYPE":"U","NORAD_CAT_ID":6155,"ELEMENT_SET_NO":999,"REV_AT_EPOCH":84203,"BSTAR":0.00020251143,"MEAN_MOTION_DOT":1.463e-5,"MEAN_MOTION_DDOT":0},{"OBJECT_NAME":"SL-8 R/B","OBJECT_ID":"1975-112B","EPOCH":"2026-03-15T06:38:09.395232","MEAN_MOTION":14.38207206,"ECCENTRICITY":0.00144481,"INCLINATION":74.0635,"RA_OF_ASC_NODE":8.6355,"ARG_OF_PERICENTER":99.5745,"MEAN_ANOMALY":260.7043,"EPHEMERIS_TYPE":0,"CLASSIFICATION_TYPE":"U","NORAD_CAT_ID":8459,"ELEMENT_SET_NO":999,"REV_AT_EPOCH":63267,"BSTAR":8.9224454e-5,"MEAN_MOTION_DOT":2.45e-6,"MEAN_MOTION_DDOT":0},{"OBJECT_NAME":"SL-3 R/B","OBJECT_ID":"1977-057B","EPOCH":"2026-03-15T05:19:51.189600","MEAN_MOTION":15.45667121,"ECCENTRICITY":0.0006135,"INCLINATION":97.5776,"RA_OF_ASC_NODE":246.3874,"ARG_OF_PERICENTER":260.9268,"MEAN_ANOMALY":99.1287,"EPHEMERIS_TYPE":0,"CLASSIFICATION_TYPE":"U","NORAD_CAT_ID":10114,"ELEMENT_SET_NO":999,"REV_AT_EPOCH":66918,"BSTAR":0.00032175272,"MEAN_MOTION_DOT":0.00015444,"MEAN_MOTION_DDOT":0},{"OBJECT_NAME":"SEASAT 1","OBJECT_ID":"1978-064A","EPOCH":"2026-03-15T02:22:38.439264","MEAN_MOTION":14.46165096,"ECCENTRICITY":0.00024185,"INCLINATION":108.0099,"RA_OF_ASC_NODE":136.8506,"ARG_OF_PERICENTER":283.6361,"MEAN_ANOMALY":76.4515,"EPHEMERIS_TYPE":0,"CLASSIFICATION_TYPE":"U","NORAD_CAT_ID":10967,"ELEMENT_SET_NO":999,"REV_AT_EPOCH":50729,"BSTAR":0.00011428335,"MEAN_MOTION_DOT":2.71e-6,"MEAN_MOTION_DDOT":0},{"OBJECT_NAME":"SL-14 R/B","OBJECT_ID":"1979-011B","EPOCH":"2026-03-15T06:45:14.082336","MEAN_MOTION":14.91915354,"ECCENTRICITY":0.00170858,"INCLINATION":82.5203,"RA_OF_ASC_NODE":91.2632,"ARG_OF_PERICENTER":43.1979,"MEAN_ANOMALY":317.0577,"EPHEMERIS_TYPE":0,"CLASSIFICATION_TYPE":"U","NORAD_CAT_ID":11267,"ELEMENT_SET_NO":999,"REV_AT_EPOCH":52961,"BSTAR":6.0256364e-5,"MEAN_MOTION_DOT":6.36e-6,"MEAN_MOTION_DDOT":0}]
