ATLAS CENTAUR 2         
1 00694U 63047A   26073.92013556  .00002292  00000+0  26943-3 0  9999
2 00694  30.3518 166.4114 0547599 126.3734 238.8666 14.12088524132368
THOR AGENA D R/B        
1 00733U 64002A   26074.31334959  .00000228  00000+0  98650-4 0  9994
2 00733  99.1222  87.9573 0032043 241.2737 118.5224 14.34023694239101
SL-3 R/B                
1 00877U 64053B   26074.02975732  .00000240  00000+0  70705-4 0  9992
2 00877  65.0777 315.5820 0079921 290.5405  68.7132 14.61372843267576
SL-8 R/B                
1 02802U 67045B   26074.18037980  .00000353  00000+0  10532-3 0  9993
2 02802  74.0137 337.8364 0064430 342.8450  17.0529 14.45628006 89819
SL-8 R/B                
1 03230U 68040B   26074.03366828  .00003943  00000+0  29197-3 0  9990
2 03230  74.0312 302.7747 0023668 124.5241 235.8187 15.03296067 90812
OAO 2                   
1 03597U 68110A   26074.16409130  .00000249  00000+0  72303-4 0  9996
2 03597  34.9925 234.6576 0006173 245.6022 114.4024 14.47311244 19893
ISIS 1                  
1 03669U 69009A   26074.20712091  .00000140  00000+0  83042-4 0  9994
2 03669  88.4533 154.7070 1707865  78.0326 300.6281 11.30415999349155
SERT 2                  
1 04327U 70009A   26074.13756390 -.00000003  00000+0  51750-4 0  9990
2 04327  99.2764  16.9332 0005255 142.4702 229.4949 13.58730358780632
SL-3 R/B                
1 05118U 71028B   26074.23182239  .00046982  00000+0  54126-3 0  9991
2 05118  81.2359  45.1812 0013268 260.6962  99.2791 15.61654845989533
ASTEX 1                 
1 05560U 71089A   26074.27119037  .00000525  00000+0  13350-3 0  9996
2 05560  92.7113 153.5643 0017680  69.4301 290.8800 14.50776173863110
SL-8 R/B                
1 05730U 71119B   26074.22339092  .00012266  00000+0  63875-3 0  9991
2 05730  73.8878 165.3752 0548005 130.8548 234.1467 14.38004507656284
OAO 3 (COPERNICUS)      
1 06153U 72065A   26073.85673854  .00000403  00000+0  87023-4 0  9999
2 06153  35.0051 267.8770 0006934 208.8547 168.5338 14.60002830846954
ATLAS CENTAUR R/B       
1 06155U 72065B   26073.89612064  .00001463  00000+0  20251-3 0  9997
2 06155  35.0009 275.2420 0033030  53.0800 307.2919 14.77703537842035
SL-8 R/B                
1 08459U 75112B   26074.27649763  .00000245  00000+0  89224-4 0  9994
2 08459  74.0635   8.6355 0014448  99.5745 260.7043 14.38207206632679
SL-3 R/B                
1 10114U 77057B   26074.22212025  .00015444  00000+0  32175-3 0  9996
2 10114  97.5776 246.3874 0006135 260.9268  99.1287 15.45667121669186
SEASAT 1                
1 10967U 78064A   26074.09905601  .00000271  00000+0  11428-3 0  9995
2 10967 108.0099 136.8506 0002418 283.6361  76.4515 14.46165096507298
SL-14 R/B               
1 11267U 79011B   26074.28141299  .00000636  00000+0  60256-4 0  9997
2 11267  82.5203  91.2632 0017085  43.1979 317.0577 14.91915354529611
